{"fetched_at":"2026-07-16T17:46:54.058Z","source":"https://celestrak.org/NORAD/elements/gp.php?NAME=RADARSAT&FORMAT=JSON","constellation":"radarsat-2","records":[{"OBJECT_NAME":"RADARSAT-2","OBJECT_ID":"2007-061A","EPOCH":"2026-07-16T06:51:18.847584","CLASSIFICATION_TYPE":"U","MEAN_MOTION":14.29984032,"ECCENTRICITY":0.00013151,"INCLINATION":98.5777,"RA_OF_ASC_NODE":203.8028,"ARG_OF_PERICENTER":83.646,"MEAN_ANOMALY":276.4873,"EPHEMERIS_TYPE":0,"NORAD_CAT_ID":32382,"ELEMENT_SET_NO":999,"REV_AT_EPOCH":97011,"BSTAR":0.0001050298,"MEAN_MOTION_DOT":0.00000227,"MEAN_MOTION_DDOT":0}]}
